NORAD_CAT_ID,OBJECT_NAME,OBJECT_TYPE,EPOCH,MEAN_MOTION,ECCENTRICITY,INCLINATION,RA_OF_ASC_NODE,ARG_OF_PERICENTER,MEAN_ANOMALY,BSTAR,MEAN_MOTION_DOT,MEAN_MOTION_DDOT,TLE_LINE0,TLE_LINE1,TLE_LINE2,SEMIMAJOR_AXIS,PERIOD,APOGEE,PERIGEE,DECAYED
52586.0,STARLINK-3910,PAYLOAD,2024-03-01 02:09:40,15.0884354,0.0001505,53.2174,194.8251,86.9045,273.2119,0.00015876,2.24e-05,0.0,0 STARLINK-3910,1 52586U 22051BC  24061.09004858  .00002240  00000-0  15876-3 0  9991,2 52586  53.2174 194.8251 0001505  86.9045 273.2119 15.08843540100153,6917.87,95.437,540.776,538.693,0.0
52586.0,STARLINK-3910,PAYLOAD,2024-03-01 14:52:45,15.08843258,0.0001473,53.2173,192.445,91.9263,268.1897,6.73e-05,7.83e-06,0.0,0 STARLINK-3910,1 52586U 22051BC  24061.61997062  .00000783  00000-0  67300-4 0  9997,2 52586  53.2173 192.4450 0001473  91.9263 268.1897 15.08843258100162,6917.87,95.437,540.754,538.716,0.0
52586.0,STARLINK-3910,PAYLOAD,2024-03-02 14:43:32,15.08847553,0.0001264,53.2168,187.9815,90.5027,269.611,-4.2979e-05,-9.72e-06,0.0,0 STARLINK-3910,1 52586U 22051BC  24062.61356795 -.00000972  00000-0 -42979-4 0  9997,2 52586  53.2168 187.9815 0001264  90.5027 269.6110 15.08847553100314,6917.857,95.437,540.597,538.848,0.0
52586.0,STARLINK-3910,PAYLOAD,2024-03-03 01:51:14,15.08844015,0.0001328,53.2173,185.9015,87.0747,273.0397,-5.9454e-05,-1.234e-05,0.0,0 STARLINK-3910,1 52586U 22051BC  24063.07724929 -.00001234  00000-0 -59454-4 0  9994,2 52586  53.2173 185.9015 0001328  87.0747 273.0397 15.08844015100452,6917.868,95.437,540.652,538.814,0.0
52586.0,STARLINK-3910,PAYLOAD,2024-03-03 11:23:33,15.08830215,0.0001359,53.2177,184.1161,96.3145,263.8002,0.00014602,2.036e-05,0.0,0 STARLINK-3910,1 52586U 22051BC  24063.47469420  .00002036  00000-0  14602-3 0  9994,2 52586  53.2177 184.1161 0001359  96.3145 263.8002 15.08830215100512,6917.91,95.438,540.715,538.835,0.0
52586.0,STARLINK-3910,PAYLOAD,2024-03-03 14:34:19,15.08840034,0.0001464,53.218,183.5211,98.7022,261.4136,3.1168e-05,2.08e-06,0.0,0 STARLINK-3910,1 52586U 22051BC  24063.60717011  .00000208  00000-0  31168-4 0  9997,2 52586  53.2180 183.5211 0001464  98.7022 261.4136 15.08840034100468,6917.88,95.438,540.758,538.733,0.0
52586.0,STARLINK-3910,PAYLOAD,2024-03-04 12:49:42,15.08848633,0.0001454,53.2178,179.3582,88.0702,272.0456,0.0001746,2.493e-05,0.0,0 STARLINK-3910,1 52586U 22051BC  24064.53451732  .00002493  00000-0  17460-3 0  9991,2 52586  53.2178 179.3582 0001454  88.0702 272.0456 15.08848633100674,6917.854,95.437,540.725,538.713,0.0
52586.0,STARLINK-3910,PAYLOAD,2024-03-04 14:25:04,15.08858435,0.0001379,53.2176,179.0617,93.5644,266.5506,0.00025881,3.835e-05,0.0,0 STARLINK-3910,1 52586U 22051BC  24064.60074907  .00003835  00000-0  25881-3 0  9991,2 52586  53.2176 179.0617 0001379  93.5644 266.5506 15.08858435100686,6917.824,95.436,540.643,538.735,0.0
52586.0,STARLINK-3910,PAYLOAD,2024-03-05 14:15:54,15.08805481,0.0001484,53.216,174.6033,120.9327,239.1811,-0.00052087,-8.56e-05,0.0,0 STARLINK-3910,1 52586U 22051BC  24065.59438640 -.00008560  00000-0 -52087-3 0  9998,2 52586  53.2160 174.6033 0001484 120.9327 239.1811 15.08805481100769,6917.986,95.44,540.878,538.824,0.0
52586.0,STARLINK-3910,PAYLOAD,2024-03-06 10:55:54,15.08839433,0.0001543,53.2162,170.738,109.7167,250.3992,-0.00012306,-2.246e-05,0.0,0 STARLINK-3910,1 52586U 22051BC  24066.45549542 -.00002246  00000-0 -12306-3 0  9993,2 52586  53.2162 170.7380 0001543 109.7167 250.3992 15.08839433100967,6917.882,95.438,540.815,538.68,0.0
52586.0,STARLINK-3910,PAYLOAD,2024-03-06 12:31:17,15.0884093,0.0001543,53.2165,170.4408,108.264,251.852,-6.2964e-05,-1.29e-05,0.0,0 STARLINK-3910,1 52586U 22051BC  24066.52173320 -.00001290  00000-0 -62964-4 0  9992,2 52586  53.2165 170.4408 0001543 108.2640 251.8520 15.08840930100909,6917.878,95.437,540.81,538.675,0.0
52586.0,STARLINK-3910,PAYLOAD,2024-03-06 23:38:59,15.08849189,0.0001207,53.2154,168.3571,81.1405,278.9724,0.00019194,2.769e-05,0.0,0 STARLINK-3910,1 52586U 22051BC  24066.98540896  .00002769  00000-0  19194-3 0  9994,2 52586  53.2154 168.3571 0001207  81.1405 278.9724 15.08849189101046,6917.852,95.437,540.552,538.882,0.0
52586.0,STARLINK-3910,PAYLOAD,2024-03-07 13:57:29,15.08827953,0.000128,53.216,165.6808,103.7907,256.3227,0.00020568,2.986e-05,0.0,0 STARLINK-3910,1 52586U 22051BC  24067.58158654  .00002986  00000-0  20568-3 0  9996,2 52586  53.2160 165.6808 0001280 103.7907 256.3227 15.08827953101060,6917.917,95.438,540.668,538.897,0.0
52586.0,STARLINK-3910,PAYLOAD,2024-03-08 12:12:52,15.08848114,0.0001523,53.2169,161.5202,96.3369,263.7796,0.00016018,2.263e-05,0.0,0 STARLINK-3910,1 52586U 22051BC  24068.50893854  .00002263  00000-0  16018-3 0  9990,2 52586  53.2169 161.5202 0001523  96.3369 263.7796 15.08848114101279,6917.856,95.437,540.774,538.667,0.0
52586.0,STARLINK-3910,PAYLOAD,2024-03-08 20:09:47,15.08856638,0.0001441,53.2165,160.0332,93.9482,266.1675,0.00027081,4.027e-05,0.0,0 STARLINK-3910,1 52586U 22051BC  24068.84013241  .00004027  00000-0  27081-3 0  9993,2 52586  53.2165 160.0332 0001441  93.9482 266.1675 15.08856638101252,6917.83,95.437,540.691,538.698,0.0
52586.0,STARLINK-3910,PAYLOAD,2024-03-09 05:42:07,15.08828101,0.0001412,53.2139,158.2445,98.5781,261.5371,0.00018648,2.68e-05,0.0,0 STARLINK-3910,1 52586U 22051BC  24069.23758710  .00002680  00000-0  18648-3 0  9996,2 52586  53.2139 158.2445 0001412  98.5781 261.5371 15.08828101101388,6917.917,95.438,540.759,538.805,0.0
52586.0,STARLINK-3910,PAYLOAD,2024-03-09 12:03:40,15.08832719,0.0001418,53.2155,157.0591,89.5448,270.5706,7.5724e-05,9.17e-06,0.0,0 STARLINK-3910,1 52586U 22051BC  24069.50254970  .00000917  00000-0  75724-4 0  9995,2 52586  53.2155 157.0591 0001418  89.5448 270.5706 15.08832719101350,6917.903,95.438,540.749,538.787,0.0
52586.0,STARLINK-3910,PAYLOAD,2024-03-10 05:32:54,15.08837533,0.0001858,53.2186,153.7825,111.5524,248.5666,-7.7942e-05,-1.528e-05,0.0,0 STARLINK-3910,1 52586U 22051BC  24070.23118277 -.00001528  00000-0 -77942-4 0  9991,2 52586  53.2186 153.7825 0001858 111.5524 248.5666 15.08837533101535,6917.888,95.438,541.038,538.468,0.0
52586.0,STARLINK-3910,PAYLOAD,2024-03-10 11:54:26,15.08838443,0.0001594,53.2177,152.5942,96.24,263.8774,-7.9696e-05,-1.556e-05,0.0,0 STARLINK-3910,1 52586U 22051BC  24070.49614436 -.00001556  00000-0 -79696-4 0  9996,2 52586  53.2177 152.5942 0001594  96.2400 263.8774 15.08838443101509,6917.885,95.438,540.853,538.647,0.0
52586.0,STARLINK-3910,PAYLOAD,2024-03-11 11:45:13,15.08845573,0.0001497,53.2171,148.1366,104.3236,255.7922,0.00021375,3.116e-05,0.0,0 STARLINK-3910,1 52586U 22051BC  24071.48974293  .00003116  00000-0  21375-3 0  9998,2 52586  53.2171 148.1366 0001497 104.3236 255.7922 15.08845573101725,6917.863,95.437,540.764,538.693,0.0
52586.0,STARLINK-3910,PAYLOAD,2024-03-12 11:36:00,15.08837391,9.63e-05,53.2158,143.6724,79.4875,280.6226,0.00011667,1.569e-05,0.0,0 STARLINK-3910,1 52586U 22051BC  24072.48334444  .00001569  00000-0  11667-3 0  9990,2 52586  53.2158 143.6724 0000963  79.4875 280.6226 15.08837391101875,6917.888,95.438,540.42,539.087,0.0
52586.0,STARLINK-3910,PAYLOAD,2024-03-12 21:08:19,15.08845191,0.0001144,53.2184,141.8918,115.5525,244.5585,0.00012536,1.708e-05,0.0,0 STARLINK-3910,1 52586U 22051BC  24072.88077657  .00001708  00000-0  12536-3 0  9995,2 52586  53.2184 141.8918 0001144 115.5525 244.5585 15.08845191101868,6917.865,95.437,540.521,538.938,0.0
52586.0,STARLINK-3910,PAYLOAD,2024-03-13 11:26:48,15.08839247,0.0001228,53.2177,139.2196,102.6963,257.4167,-2.9468e-05,-7.57e-06,0.0,0 STARLINK-3910,1 52586U 22051BC  24073.47694677 -.00000757  00000-0 -29468-4 0  9996,2 52586  53.2177 139.2196 0001228 102.6963 257.4167 15.08839247101959,6917.883,95.438,540.597,538.898,0.0
52586.0,STARLINK-3910,PAYLOAD,2024-03-13 20:59:06,15.08852244,0.0001211,53.2187,137.4343,93.6343,266.4788,-1.6316e-05,-5.48e-06,0.0,0 STARLINK-3910,1 52586U 22051BC  24073.87437638 -.00000548  00000-0 -16316-4 0  9998,2 52586  53.2187 137.4343 0001211  93.6343 266.4788 15.08852244102083,6917.843,95.437,540.546,538.87,0.0
52586.0,STARLINK-3910,PAYLOAD,2024-03-14 03:20:39,15.08833921,0.0001587,53.2184,136.2432,86.1453,273.9721,0.00010913,1.449e-05,0.0,0 STARLINK-3910,1 52586U 22051BC  24074.13934738  .00001449  00000-0  10913-3 0  9996,2 52586  53.2184 136.2432 0001587  86.1453 273.9721 15.08833921102127,6917.899,95.438,540.862,538.666,0.0
52586.0,STARLINK-3910,PAYLOAD,2024-03-14 09:42:12,15.08828541,0.0001379,53.219,135.0553,92.6574,267.4576,5.0687e-05,5.19e-06,0.0,0 STARLINK-3910,1 52586U 22051BC  24074.40431272  .00000519  00000-0  50687-4 0  9991,2 52586  53.2190 135.0553 0001379  92.6574 267.4576 15.08828541102162,6917.915,95.438,540.734,538.826,0.0
52586.0,STARLINK-3910,PAYLOAD,2024-03-15 03:11:26,15.0883436,0.0001291,53.2185,131.7839,91.8462,268.2678,0.00014446,2.012e-05,0.0,0 STARLINK-3910,1 52586U 22051BC  24075.13294924  .00002012  00000-0  14446-3 0  9995,2 52586  53.2185 131.7839 0001291  91.8462 268.2678 15.08834360102276,6917.898,95.438,540.656,538.87,0.0
52586.0,STARLINK-3910,PAYLOAD,2024-03-15 11:08:22,15.08839484,0.0001201,53.2161,130.2973,87.5825,272.5305,0.00014007,1.942e-05,0.0,0 STARLINK-3910,1 52586U 22051BC  24075.46414717  .00001942  00000-0  14007-3 0  9999,2 52586  53.2161 130.2973 0001201  87.5825 272.5305 15.08839484102254,6917.882,95.438,540.578,538.916,0.0
52586.0,STARLINK-3910,PAYLOAD,2024-03-16 12:34:32,15.08844599,0.000123,53.2162,125.5385,86.1533,273.9599,0.00019932,2.886e-05,0.0,0 STARLINK-3910,1 52586U 22051BC  24076.52398632  .00002886  00000-0  19932-3 0  9994,2 52586  53.2162 125.5385 0001230  86.1533 273.9599 15.08844599102480,6917.866,95.437,540.582,538.88,0.0
52586.0,STARLINK-3910,PAYLOAD,2024-03-17 09:14:33,15.08842391,0.0001332,53.2161,121.6723,83.2375,276.8768,7.8378e-05,9.6e-06,0.0,0 STARLINK-3910,1 52586U 22051BC  24077.38510738  .00000960  00000-0  78378-4 0  9993,2 52586  53.2161 121.6723 0001332  83.2375 276.8768 15.08842391102610,6917.873,95.437,540.66,538.817,0.0
